ONEWEB-0211             
1 48767U 21045A   26155.11551357 -.00000066  00000+0 -20750-3 0  9991
2 48767  87.9001 261.6886 0001544 119.2257 240.9028 13.16196579242727
ONEWEB-0223             
1 48768U 21045B   26154.27474803 -.00002838  00000+0 -75739-2 0  9993
2 48768  87.9008 261.9615 0001810 146.0210 214.1036 13.15560092242570
ONEWEB-0230             
1 48769U 21045C   26154.32230782 -.00000071  00000+0 -22256-3 0  9990
2 48769  87.8999 261.9662 0002057  97.8470 262.2894 13.15547440242844
ONEWEB-0237             
1 48770U 21045D   26154.31120929 -.00000037  00000+0 -13174-3 0  9993
2 48770  87.8999 261.9699 0001636  96.2890 263.8427 13.15549928242568
ONEWEB-0235             
1 48771U 21045E   26154.28586787  .00000206  00000+0  51250-3 0  9991
2 48771  87.9007 261.9598 0001486 101.2329 258.8969 13.15547547242554
ONEWEB-0242             
1 48772U 21045F   26155.11616535  .00000014  00000+0  21476-5 0  9996
2 48772  87.9008 261.7909 0001822  95.6082 264.5257 13.15547545242705
ONEWEB-0241             
1 48773U 21045G   26154.26685835  .00000030  00000+0  46249-4 0  9993
2 48773  87.9003 261.9795 0001494 107.4452 252.6841 13.15546923242508
ONEWEB-0243             
1 48774U 21045H   26154.29854291  .00000146  00000+0  35508-3 0  9994
2 48774  87.9000 261.9856 0001643  86.1731 273.9587 13.15548099242535
ONEWEB-0222             
1 48775U 21045J   26154.28190486  .00000181  00000+0  44738-3 0  9997
2 48775  87.9005 261.9554 0001703 105.4735 254.6583 13.15547491242573
ONEWEB-0244             
1 48776U 21045K   26154.30804904  .00000019  00000+0  16143-4 0  9998
2 48776  87.9014 261.9441 0001789  98.9467 261.1866 13.15547268243144
ONEWEB-0247             
1 48777U 21045L   26154.30487012  .00002307  00000+0  60933-2 0  9992
2 48777  87.9004 261.9790 0001541  83.6278 276.5028 13.15545237242589
ONEWEB-0245             
1 48778U 21045M   26154.30013213  .00000115  00000+0  27139-3 0  9998
2 48778  87.9008 261.9576 0001828 109.8880 250.2448 13.15548165242559
ONEWEB-0229             
1 48779U 21045N   26154.29537337  .00000121  00000+0  28719-3 0  9997
2 48779  87.9003 261.9569 0001831  99.2164 260.9174 13.15547110242584
ONEWEB-0228             
1 48780U 21045P   26154.32877565 -.00000078  00000+0 -24020-3 0  9997
2 48780  87.9012 261.9419 0001818 100.8641 259.2694 13.15550048242508
ONEWEB-0232             
1 48781U 21045Q   26154.30329622  .00000168  00000+0  41212-3 0  9992
2 48781  87.9011 261.9479 0001846 100.0875 260.0463 13.15550119242824
ONEWEB-0231             
1 48782U 21045R   26154.28110778  .00000154  00000+0  37608-3 0  9999
2 48782  87.9007 261.9663 0001629 101.2869 258.8444 13.15547237242517
ONEWEB-0234             
1 48783U 21045S   26154.31900476 -.00000092  00000+0 -27723-3 0  9996
2 48783  87.9005 261.9400 0002351 120.0096 240.1268 13.15547916242656
ONEWEB-0238             
1 48784U 21045T   26154.31927533 -.00000126  00000+0 -36836-3 0  9993
2 48784  87.9014 261.9343 0002156 113.9947 246.1410 13.15549704242553
ONEWEB-0240             
1 48785U 21045U   26154.34052067 -.00000141  00000+0 -40752-3 0  9997
2 48785  87.9013 261.9397 0001620 105.5761 254.5548 13.15550337242580
ONEWEB-0246             
1 48786U 21045V   26154.33499109 -.00000131  00000+0 -38196-3 0  9997
2 48786  87.9009 261.9462 0001881 101.3685 258.7657 13.15548168242459
ONEWEB-0210             
1 48787U 21045W   26154.30963590  .00000032  00000+0  49641-4 0  9991
2 48787  87.9011 261.9481 0001502  74.3558 285.7738 13.15550064242494
ONEWEB-0214             
1 48788U 21045X   26154.31834621 -.00000044  00000+0 -15038-3 0  9992
2 48788  87.9010 261.9427 0001975  89.0233 271.1124 13.15547710242460
ONEWEB-0221             
1 48789U 21045Y   26154.32547457 -.00000111  00000+0 -32990-3 0  9993
2 48789  87.9010 261.9505 0001758 102.8738 257.2589 13.15547602242551
ONEWEB-0213             
1 48790U 21045Z   26154.31437372 -.00000046  00000+0 -15514-3 0  9998
2 48790  87.9010 261.9561 0001686 102.3297 257.8022 13.15550234242610
ONEWEB-0212             
1 48791U 21045AA  26154.29142085  .00000162  00000+0  39716-3 0  9997
2 48791  87.9007 261.9549 0001954 104.4233 255.7115 13.15548784242600
ONEWEB-0227             
1 48792U 21045AB  26154.29062485  .00000227  00000+0  56845-3 0  9997
2 48792  87.9011 261.9555 0001829 103.8745 256.2589 13.15547555242555
ONEWEB-0226             
1 48793U 21045AC  26154.28428512  .00000220  00000+0  54940-3 0  9991
2 48793  87.9006 261.9620 0001699  95.7508 264.3816 13.15549157242524
ONEWEB-0224             
1 48794U 21045AD  26154.32388328 -.00000058  00000+0 -18737-3 0  9992
2 48794  87.8998 261.9889 0001789 128.2441 231.8850 13.15550211242451
ONEWEB-0233             
1 48795U 21045AE  26154.32850511 -.00000080  00000+0 -24636-3 0  9991
2 48795  87.8999 261.9960 0001633 103.6331 256.4981 13.15547447242473
ONEWEB-0190             
1 48796U 21045AF  26154.31595782 -.00000140  00000+0 -40618-3 0  9992
2 48796  87.9005 261.9602 0001240  94.8265 265.3007 13.15549927242548
