OBJECT_NAME,OBJECT_ID,EPOCH,MEAN_MOTION,ECCENTRICITY,INCLINATION,RA_OF_ASC_NODE,ARG_OF_PERICENTER,MEAN_ANOMALY,EPHEMERIS_TYPE,CLASSIFICATION_TYPE,NORAD_CAT_ID,ELEMENT_SET_NO,REV_AT_EPOCH,BSTAR,MEAN_MOTION_DOT,MEAN_MOTION_DDOT
ONEWEB-0211,2021-045A,2026-06-04T02:46:20.371584,13.16196579,.0001544,87.9001,261.6886,119.2257,240.9028,0,U,48767,999,24272,-.2075E-3,-.66E-6,0
ONEWEB-0223,2021-045B,2026-06-03T06:35:38.229792,13.15560092,.00018105,87.9008,261.9615,146.0210,214.1036,0,U,48768,999,24257,-.75739152E-2,-.2838E-4,0
ONEWEB-0230,2021-045C,2026-06-03T07:44:07.395648,13.15547440,.00020573,87.8999,261.9662,97.8470,262.2894,0,U,48769,999,24284,-.22256076E-3,-.71E-6,0
ONEWEB-0237,2021-045D,2026-06-03T07:28:08.482656,13.15549928,.00016367,87.8999,261.9699,96.2890,263.8427,0,U,48770,999,24256,-.13173584E-3,-.37E-6,0
ONEWEB-0235,2021-045E,2026-06-03T06:51:38.983968,13.15547547,.00014867,87.9007,261.9598,101.2329,258.8969,0,U,48771,999,24255,.51250198E-3,.206E-5,0
ONEWEB-0242,2021-045F,2026-06-04T02:47:16.686240,13.15547545,.0001822,87.9008,261.7909,95.6082,264.5257,0,U,48772,999,24270,.21476E-5,.14E-6,0
ONEWEB-0241,2021-045G,2026-06-03T06:24:16.561440,13.15546923,.00014942,87.9003,261.9795,107.4452,252.6841,0,U,48773,999,24250,.4624924E-4,.3E-6,0
ONEWEB-0243,2021-045H,2026-06-03T07:09:54.107424,13.15548099,.00016434,87.9000,261.9856,86.1731,273.9587,0,U,48774,999,24253,.3550792E-3,.146E-5,0
ONEWEB-0222,2021-045J,2026-06-03T06:45:56.579904,13.15547491,.00017038,87.9005,261.9554,105.4735,254.6583,0,U,48775,999,24257,.447377E-3,.181E-5,0
ONEWEB-0244,2021-045K,2026-06-03T07:23:35.437056,13.15547268,.00017892,87.9014,261.9441,98.9467,261.1866,0,U,48776,999,24314,.16143194E-4,.19E-6,0
ONEWEB-0247,2021-045L,2026-06-03T07:19:00.778368,13.15545237,.00015417,87.9004,261.9790,83.6278,276.5028,0,U,48777,999,24258,.60933089E-2,.2307E-4,0
ONEWEB-0245,2021-045M,2026-06-03T07:12:11.416032,13.15548165,.00018284,87.9008,261.9576,109.8880,250.2448,0,U,48778,999,24255,.27139399E-3,.115E-5,0
ONEWEB-0229,2021-045N,2026-06-03T07:05:20.259168,13.15547110,.0001831,87.9003,261.9569,99.2164,260.9174,0,U,48779,999,24258,.2871907E-3,.121E-5,0
ONEWEB-0228,2021-045P,2026-06-03T07:53:26.216160,13.15550048,.00018182,87.9012,261.9419,100.8641,259.2694,0,U,48780,999,24250,-.24020166E-3,-.78E-6,0
ONEWEB-0232,2021-045Q,2026-06-03T07:16:44.793408,13.15550119,.00018463,87.9011,261.9479,100.0875,260.0463,0,U,48781,999,24282,.41211634E-3,.168E-5,0
ONEWEB-0231,2021-045R,2026-06-03T06:44:47.712192,13.15547237,.00016293,87.9007,261.9663,101.2869,258.8444,0,U,48782,999,24251,.37607517E-3,.154E-5,0
ONEWEB-0234,2021-045S,2026-06-03T07:39:22.011264,13.15547916,.00023519,87.9005,261.9400,120.0096,240.1268,0,U,48783,999,24265,-.27723159E-3,-.92E-6,0
ONEWEB-0238,2021-045T,2026-06-03T07:39:45.388512,13.15549704,.00021566,87.9014,261.9343,113.9947,246.1410,0,U,48784,999,24255,-.3683633E-3,-.126E-5,0
ONEWEB-0240,2021-045U,2026-06-03T08:10:20.985888,13.15550337,.000162,87.9013,261.9397,105.5761,254.5548,0,U,48785,999,24258,-.40752154E-3,-.141E-5,0
ONEWEB-0246,2021-045V,2026-06-03T08:02:23.230176,13.15548168,.00018818,87.9009,261.9462,101.3685,258.7657,0,U,48786,999,24245,-.38195902E-3,-.131E-5,0
ONEWEB-0210,2021-045W,2026-06-03T07:25:52.541760,13.15550064,.00015028,87.9011,261.9481,74.3558,285.7738,0,U,48787,999,24249,.49641298E-4,.32E-6,0
ONEWEB-0214,2021-045X,2026-06-03T07:38:25.112544,13.15547710,.00019753,87.9010,261.9427,89.0233,271.1124,0,U,48788,999,24246,-.15037692E-3,-.44E-6,0
ONEWEB-0221,2021-045Y,2026-06-03T07:48:41.002848,13.15547602,.00017587,87.9010,261.9505,102.8738,257.2589,0,U,48789,999,24255,-.32990492E-3,-.111E-5,0
ONEWEB-0213,2021-045Z,2026-06-03T07:32:41.889408,13.15550234,.00016865,87.9010,261.9561,102.3297,257.8022,0,U,48790,999,24261,-.15513658E-3,-.46E-6,0
ONEWEB-0212,2021-045AA,2026-06-03T06:59:38.761440,13.15548784,.00019541,87.9007,261.9549,104.4233,255.7115,0,U,48791,999,24260,.39716236E-3,.162E-5,0
ONEWEB-0227,2021-045AB,2026-06-03T06:58:29.987040,13.15547555,.00018293,87.9011,261.9555,103.8745,256.2589,0,U,48792,999,24255,.56845046E-3,.227E-5,0
ONEWEB-0226,2021-045AC,2026-06-03T06:49:22.234368,13.15549157,.00016994,87.9006,261.9620,95.7508,264.3816,0,U,48793,999,24252,.54939717E-3,.22E-5,0
ONEWEB-0224,2021-045AD,2026-06-03T07:46:23.515392,13.15550211,.00017895,87.8998,261.9889,128.2441,231.8850,0,U,48794,999,24245,-.18737355E-3,-.58E-6,0
ONEWEB-0233,2021-045AE,2026-06-03T07:53:02.841504,13.15547447,.00016331,87.8999,261.9960,103.6331,256.4981,0,U,48795,999,24247,-.24635913E-3,-.8E-6,0
ONEWEB-0190,2021-045AF,2026-06-03T07:34:58.755648,13.15549927,.00012409,87.9005,261.9602,94.8265,265.3007,0,U,48796,999,24254,-.40617626E-3,-.14E-5,0
